[{"OBJECT_NAME":"RESOURCESAT-2","OBJECT_ID":"2011-015A","EPOCH":"2026-03-09T22:09:34.808256","MEAN_MOTION":14.21500709,"ECCENTRICITY":0.00064275,"INCLINATION":98.7721,"RA_OF_ASC_NODE":137.0095,"ARG_OF_PERICENTER":138.2632,"MEAN_ANOMALY":221.9036,"EPHEMERIS_TYPE":0,"CLASSIFICATION_TYPE":"U","NORAD_CAT_ID":37387,"ELEMENT_SET_NO":999,"REV_AT_EPOCH":77207,"BSTAR":-7.3226423e-5,"MEAN_MOTION_DOT":-2.05e-6,"MEAN_MOTION_DDOT":0},{"OBJECT_NAME":"THOR ABLESTAR DEB","OBJECT_ID":"1961-015AQ","EPOCH":"2026-03-09T07:54:37.882368","MEAN_MOTION":14.06270153,"ECCENTRICITY":0.00751241,"INCLINATION":66.6581,"RA_OF_ASC_NODE":44.862,"ARG_OF_PERICENTER":82.0972,"MEAN_ANOMALY":278.8632,"EPHEMERIS_TYPE":0,"CLASSIFICATION_TYPE":"U","NORAD_CAT_ID":154,"ELEMENT_SET_NO":999,"REV_AT_EPOCH":30259,"BSTAR":0.00030004908,"MEAN_MOTION_DOT":4.27e-6,"MEAN_MOTION_DDOT":0}]
